{"spkid": "50558412", "covariance": {"epoch": "2456137.5", "elements": [{"units": null, "title": "eccentricity", "value": ".7191180845882726", "name": "e", "sigma": 9.13495380371756e-08, "label": "e"}, {"label": "q", "units": "au", "title": "perihelion distance", "value": ".7345287427746039", "sigma": 2.21725993463853e-07, "name": "q"}, {"units": "TDB", "value": "2455703.515328973941", "title": "time of perihelion passage", "sigma": 2.42109851036151e-05, "name": "tp", "label": "tp"}, {"label": "node", "units": "deg", "title": "longitude of the ascending node", "value": "328.7691710045913", "sigma": 6.14880828114366e-05, "name": "om"}, {"label": "peri", "sigma": 6.37730654061181e-05, "name": "w", "title": "argument of perihelion", "value": "294.9524926635343", "units": "deg"}, {"units": "deg", "title": "inclination", "value": "7.694822958489237", "name": "i", "sigma": 1.93225335217719e-05, "label": "i"}], "data": [["8.344738099605394E-15", "-1.997141894447902E-14", "1.512589788732842E-13", "5.722584183174741E-13", "1.208507653146751E-12", "1.967657018667675E-13"], ["-1.997141894447902E-14", "4.916241617753274E-14", "1.432855426718787E-13", "-1.037159763035983E-12", "-2.989926285840177E-12", "-1.720772310370282E-13"], ["1.512589788732842E-13", "1.432855426718787E-13", "5.861717996874701E-10", "2.129371392891991E-11", "3.348143129286218E-10", "2.273585882762771E-10"], ["5.722584183174741E-13", "-1.037159763035983E-12", "2.129371392891991E-11", "3.780784327826082E-9", "-3.633815978480165E-9", "8.27045973185738E-10"], ["1.208507653146751E-12", "-2.989926285840177E-12", "3.348143129286218E-10", "-3.633815978480165E-9", "4.067003871293015E-9", "-6.627122357178096E-10"], ["1.967657018667675E-13", "-1.720772310370282E-13", "2.273585882762771E-10", "8.27045973185738E-10", "-6.627122357178096E-10", "3.733603016999996E-10"]], "labels": ["e", "q", "tp", "node", "peri", "i"]}, "elements": [{"value": ".7089437873890871", "title": "eccentricity", "units": null, "sigma": "1.0173E-7", "name": "e", "label": "e"}, {"label": "a", "title": "semi-major axis", "value": "2.634673415831294", "units": "au", "name": "a", "sigma": "1.0333E-7"}, {"sigma": "2.5771E-7", "name": "q", "value": ".7668380658785132", "title": "perihelion distance", "units": "au", "label": "q"}, {"name": "i", "sigma": "1.9146E-5", "value": "8.170038621522398", "title": "inclination; angle with respect to x-y ecliptic plane", "units": "deg", "label": "i"}, {"label": "node", "value": "321.0499488440546", "title": "longitude of the ascending node", "units": "deg", "name": "om", "sigma": "6.9493E-5"}, {"sigma": "7.4919E-5", "name": "w", "units": "deg", "value": "303.0412246653784", "title": "argument of perihelion", "label": "peri"}, {"units": "deg", "title": "mean anomaly", "value": "190.7678031145734", "sigma": "9.8893E-5", "name": "ma", "label": "M"}, {"label": "tp", "value": "2461934.792517008871", "title": "time of perihelion passage", "units": "TDB", "name": "tp", "sigma": ".0004722"}, {"name": "per", "sigma": "9.1888E-5", "units": "d", "title": "sidereal orbital period", "value": "1562.027267790894", "label": "period"}, {"label": "n", "units": "deg/d", "value": ".2304697282968254", "title": "mean motion", "sigma": "1.3558E-8", "name": "n"}, {"label": "Q", "units": "au", "title": "aphelion distance", "value": "4.502508765784075", "sigma": "1.7658E-7", "name": "ad"}], "epoch": "2461200.5"}